CTC2_L_00042016-03
1 77414U 23181VO  26037.47790509  .00000000  00000+0  00000-0 0  9996
2 77414  90.0000 180.0000 0000000   0.0000   0.0000 15.59189987    16
CTC2_L_00042016-04
1 77415U 25741IR  26037.47790509  .00000000  00000+0  00000-0 0  9991
2 77415  90.0000 180.0000 0000000   0.0000  90.0000 15.59189987    16
CTC2_L_00042017-01
1 77416U 23409IS  26037.47790509  .00000000  00000+0  00000-0 0  9991
2 77416  90.0000 192.0000 0000000   0.0000 192.0000 15.59189987    13
CTC2_L_00042017-02
1 77417U 25980MN  26037.47790509  .00000000  00000+0  00000-0 0  9998
2 77417  90.0000 192.0000 0000000   0.0000 282.0000 15.59189987    14
CTC2_L_00042017-03
1 77418U 24784JL  26037.47790509  .00000000  00000+0  00000-0 0  9990
2 77418  90.0000 192.0000 0000000   0.0000  12.0000 15.59189987    16
CTC2_L_00042017-04
1 77419U 22494JU  26037.47790509  .00000000  00000+0  00000-0 0  9997
2 77419  90.0000 192.0000 0000000   0.0000 102.0000 15.59189987    17
CTC2_L_00042018-01
1 77420U 26174EJ  26037.47790509  .00000000  00000+0  00000-0 0  9998
2 77420  90.0000 204.0000 0000000   0.0000 204.0000 15.59189987    16
CTC2_L_00042018-02
1 77421U 22722ZS  26037.47790509  .00000000  00000+0  00000-0 0  9994
2 77421  90.0000 204.0000 0000000   0.0000 294.0000 15.59189987    16
CTC2_L_00042018-03
1 77422U 25795LR  26037.47790509  .00000000  00000+0  00000-0 0  9998
2 77422  90.0000 204.0000 0000000   0.0000  24.0000 15.59189987    18
CTC2_L_00042018-04
1 77423U 26683YJ  26037.47790509  .00000000  00000+0  00000-0 0  9996
2 77423  90.0000 204.0000 0000000   0.0000 114.0000 15.59189987    19
CTC2_L_00042019-01
1 77424U 24468TP  26037.47790509  .00000000  00000+0  00000-0 0  9996
2 77424  90.0000 216.0000 0000000   0.0000 216.0000 15.59189987    16
CTC2_L_00042019-02
1 77425U 22599KP  26037.47790509  .00000000  00000+0  00000-0 0  9990
2 77425  90.0000 216.0000 0000000   0.0000 306.0000 15.59189987    17
CTC2_L_00042019-03
1 77426U 24850X   26037.47790509  .00000000  00000+0  00000-0 0  9993
2 77426  90.0000 216.0000 0000000   0.0000  36.0000 15.59189987    18
CTC2_L_00042019-04
1 77427U 22919HJ  26037.47790509  .00000000  00000+0  00000-0 0  9998
2 77427  90.0000 216.0000 0000000   0.0000 126.0000 15.59189987    19
CTC2_L_00042020-01
1 77428U 22698GI  26037.47790509  .00000000  00000+0  00000-0 0  9993
2 77428  90.0000 228.0000 0000000   0.0000 228.0000 15.59189987    16
CTC2_L_00042020-02
1 77429U 22315PR  26037.47790509  .00000000  00000+0  00000-0 0  9990
2 77429  90.0000 228.0000 0000000   0.0000 318.0000 15.59189987    17
CTC2_L_00042020-03
1 77430U 25798CJ  26037.47790509  .00000000  00000+0  00000-0 0  9990
2 77430  90.0000 228.0000 0000000   0.0000  48.0000 15.59189987    19
CTC2_L_00042020-04
1 77431U 26802UH  26037.47790509  .00000000  00000+0  00000-0 0  9998
2 77431  90.0000 228.0000 0000000   0.0000 138.0000 15.59189987    10
CTC2_L_00042021-01
1 77432U 26609EN  26037.47790509  .00000000  00000+0  00000-0 0  9994
2 77432  90.0000 240.0000 0000000   0.0000 240.0000 15.59189987    19
CTC2_L_00042021-02
1 77433U 26992K   26037.47790509  .00000000  00000+0  00000-0 0  9990
2 77433  90.0000 240.0000 0000000   0.0000 330.0000 15.59189987    10
CTC2_L_00042021-03
1 77434U 22196VF  26037.47790509  .00000000  00000+0  00000-0 0  9993
2 77434  90.0000 240.0000 0000000   0.0000  60.0000 15.59189987    11
CTC2_L_00042021-04
1 77435U 23818NU  26037.47790509  .00000000  00000+0  00000-0 0  9996
2 77435  90.0000 240.0000 0000000   0.0000 150.0000 15.59189987    12
CTC2_L_00042022-01
1 77436U 25899FN  26037.47790509  .00000000  00000+0  00000-0 0  9998
2 77436  90.0000 252.0000 0000000   0.0000 252.0000 15.59189987    19
CTC2_L_00042022-02
1 77437U 26211YP  26037.47790509  .00000000  00000+0  00000-0 0  9998
2 77437  90.0000 252.0000 0000000   0.0000 342.0000 15.59189987    10
CTC2_L_00042022-03
1 77438U 23461BR  26037.47790509  .00000000  00000+0  00000-0 0  9993
2 77438  90.0000 252.0000 0000000   0.0000  72.0000 15.59189987    11
CTC2_L_00042022-04
1 77439U 25105MW  26037.47790509  .00000000  00000+0  00000-0 0  9991
2 77439  90.0000 252.0000 0000000   0.0000 162.0000 15.59189987    12
CTC2_L_00042023-01
1 77440U 23842XE  26037.47790509  .00000000  00000+0  00000-0 0  9999
2 77440  90.0000 264.0000 0000000   0.0000 264.0000 15.59189987    10
CTC2_L_00042023-02
1 77441U 26893TC  26037.47790509  .00000000  00000+0  00000-0 0  9999
2 77441  90.0000 264.0000 0000000   0.0000 354.0000 15.59189987    11
CTC2_L_00042023-03
1 77442U 24410VT  26037.47790509  .00000000  00000+0  00000-0 0  9993
2 77442  90.0000 264.0000 0000000   0.0000  84.0000 15.59189987    12
CTC2_L_00042023-04
1 77443U 24589KX  26037.47790509  .00000000  00000+0  00000-0 0  9991
2 77443  90.0000 264.0000 0000000   0.0000 174.0000 15.59189987    13
CTC2_L_00042024-01
1 77444U 25947EA  26037.47790509  .00000000  00000+0  00000-0 0  9991
2 77444  90.0000 276.0000 0000000   0.0000 276.0000 15.59189987    10
CTC2_L_00042024-02
1 77445U 23800VU  26037.47790509  .00000000  00000+0  00000-0 0  9998
2 77445  90.0000 276.0000 0000000   0.0000   6.0000 15.59189987    12
CTC2_L_00042024-03
1 77446U 23713TK  26037.47790509  .00000000  00000+0  00000-0 0  9992
2 77446  90.0000 276.0000 0000000   0.0000  96.0000 15.59189987    12
CTC2_L_00042024-04
1 77447U 22817AY  26037.47790509  .00000000  00000+0  00000-0 0  9997
2 77447  90.0000 276.0000 0000000   0.0000 186.0000 15.59189987    13
CTC2_L_00042025-01
1 77448U 26756SG  26037.47790509  .00000000  00000+0  00000-0 0  9994
2 77448  90.0000 288.0000 0000000   0.0000 288.0000 15.59189987    10
CTC2_L_00042025-02
1 77449U 25582WQ  26037.47790509  .00000000  00000+0  00000-0 0  9991
2 77449  90.0000 288.0000 0000000   0.0000  18.0000 15.59189987    12
CTC2_L_00042025-03
1 77450U 22538FJ  26037.47790509  .00000000  00000+0  00000-0 0  9991
2 77450  90.0000 288.0000 0000000   0.0000 108.0000 15.59189987    14
CTC2_L_00042025-04
1 77451U 25501GE  26037.47790509  .00000000  00000+0  00000-0 0  9995
2 77451  90.0000 288.0000 0000000   0.0000 198.0000 15.59189987    14
CTC2_L_00042026-01
1 77452U 25187TQ  26037.47790509  .00000000  00000+0  00000-0 0  9996
2 77452  90.0000 300.0000 0000000   0.0000 300.0000 15.59189987    15
CTC2_L_00042026-02
1 77453U 24564HZ  26037.47790509  .00000000  00000+0  00000-0 0  9995
2 77453  90.0000 300.0000 0000000   0.0000  30.0000 15.59189987    16
CTC2_L_00042026-03
1 77454U 22862VN  26037.47790509  .00000000  00000+0  00000-0 0  9995
2 77454  90.0000 300.0000 0000000   0.0000 120.0000 15.59189987    17
CTC2_L_00042026-04
1 77455U 22919WL  26037.47790509  .00000000  00000+0  00000-0 0  9999
2 77455  90.0000 300.0000 0000000   0.0000 210.0000 15.59189987    18
CTC2_L_00042027-01
1 77456U 23932KD  26037.47790509  .00000000  00000+0  00000-0 0  9996
2 77456  90.0000 312.0000 0000000   0.0000 312.0000 15.59189987    15
CTC2_L_00042027-02
1 77457U 22332EY  26037.47790509  .00000000  00000+0  00000-0 0  9990
2 77457  90.0000 312.0000 0000000   0.0000  42.0000 15.59189987    16
CTC2_L_00042027-03
1 77458U 23673BO  26037.47790509  .00000000  00000+0  00000-0 0  9990
2 77458  90.0000 312.0000 0000000   0.0000 132.0000 15.59189987    17
CTC2_L_00042027-04
1 77459U 22603CZ  26037.47790509  .00000000  00000+0  00000-0 0  9993
2 77459  90.0000 312.0000 0000000   0.0000 222.0000 15.59189987    18
CTC2_L_00042028-01
1 77460U 22908LC  26037.47790509  .00000000  00000+0  00000-0 0  9993
2 77460  90.0000 324.0000 0000000   0.0000 324.0000 15.59189987    16
CTC2_L_00042028-02
1 77461U 23374MQ  26037.47790509  .00000000  00000+0  00000-0 0  9992
2 77461  90.0000 324.0000 0000000   0.0000  54.0000 15.59189987    17
CTC2_L_00042028-03
1 77462U 26212UY  26037.47790509  .00000000  00000+0  00000-0 0  9997
2 77462  90.0000 324.0000 0000000   0.0000 144.0000 15.59189987    18
CTC2_L_00042028-04
1 77463U 26623JY  26037.47790509  .00000000  00000+0  00000-0 0  9994
2 77463  90.0000 324.0000 0000000   0.0000 234.0000 15.59189987    19
CTC2_L_00042029-01
1 77464U 26989Z   26037.47790509  .00000000  00000+0  00000-0 0  9990
2 77464  90.0000 336.0000 0000000   0.0000 336.0000 15.59189987    16
CTC2_L_00042029-02
1 77465U 25785IY  26037.47790509  .00000000  00000+0  00000-0 0  9994
2 77465  90.0000 336.0000 0000000   0.0000  66.0000 15.59189987    17
CTC2_L_00042029-03
1 77466U 24580OM  26037.47790509  .00000000  00000+0  00000-0 0  9997
2 77466  90.0000 336.0000 0000000   0.0000 156.0000 15.59189987    18
CTC2_L_00042029-04
1 77467U 25907T   26037.47790509  .00000000  00000+0  00000-0 0  9992
2 77467  90.0000 336.0000 0000000   0.0000 246.0000 15.59189987    19
CTC2_L_00042030-01
1 77468U 24829KH  26037.47790509  .00000000  00000+0  00000-0 0  9995
2 77468  90.0000 348.0000 0000000   0.0000 348.0000 15.59189987    16
CTC2_L_00042030-02
1 77469U 23404EG  26037.47790509  .00000000  00000+0  00000-0 0  9994
2 77469  90.0000 348.0000 0000000   0.0000  78.0000 15.59189987    17
CTC2_L_00042030-03
1 77470U 23938GO  26037.47790509  .00000000  00000+0  00000-0 0  9998
2 77470  90.0000 348.0000 0000000   0.0000 168.0000 15.59189987    19
CTC2_L_00042030-04
1 77471U 26772PF  26037.47790509  .00000000  00000+0  00000-0 0  9998
2 77471  90.0000 348.0000 0000000   0.0000 258.0000 15.59189987    10
